[{"OBJECT_NAME":"HAIYANG-2D","OBJECT_ID":"2021-043A","EPOCH":"2026-03-09T23:01:37.583328","MEAN_MOTION":13.8337425,"ECCENTRICITY":0.00105603,"INCLINATION":65.9986,"RA_OF_ASC_NODE":191.7425,"ARG_OF_PERICENTER":278.687,"MEAN_ANOMALY":81.3002,"EPHEMERIS_TYPE":0,"CLASSIFICATION_TYPE":"U","NORAD_CAT_ID":48621,"ELEMENT_SET_NO":999,"REV_AT_EPOCH":24282,"BSTAR":4.3398589e-5,"MEAN_MOTION_DOT":-3.3e-7,"MEAN_MOTION_DDOT":0},{"OBJECT_NAME":"SL-16 DEB","OBJECT_ID":"1992-093KB","EPOCH":"2026-03-05T11:51:39.921984","MEAN_MOTION":14.02929679,"ECCENTRICITY":0.0088333,"INCLINATION":70.8437,"RA_OF_ASC_NODE":117.952,"ARG_OF_PERICENTER":97.8023,"MEAN_ANOMALY":263.3131,"EPHEMERIS_TYPE":0,"CLASSIFICATION_TYPE":"U","NORAD_CAT_ID":39711,"ELEMENT_SET_NO":999,"REV_AT_EPOCH":60760,"BSTAR":0.00034493,"MEAN_MOTION_DOT":5.07e-6,"MEAN_MOTION_DDOT":0}]
